     2.100          NAVIGATION                              RINEX VERSION / TYPE
fic2rin                                 04/01/2014 00:15:05 PGM / RUN BY / DATE
                                                            END OF HEADER
17 14  3 31  7 59 44.0 -.810124911368D-04 -.329691829393D-11  .000000000000D+00
     .580000000000D+02  .397500000000D+02  .501878048092D-08 -.956638492862D+00
     .232644379139D-05  .927884236444D-02  .434368848801D-05  .515355940628D+04
     .115184000000D+06  .130385160446D-07 -.170173970440D+01  .191852450371D-06
     .967706002096D+00  .300312500000D+03 -.210757831545D+01 -.843928010132D-08
     .376444251843D-09  .100000000000D+01  .178600000000D+04  .000000000000D+00
     .240000000000D+01  .000000000000D+00 -.102445483208D-07  .580000000000D+02
     .108006000000D+06  .400000000000D+01
22 14  3 31  7 59 44.0  .223399605602D-03  .284217094304D-11  .000000000000D+00
     .150000000000D+02  .804062500000D+02  .518771608920D-08  .134262643641D+00
     .431574881077D-05  .697795965243D-02  .121649354696D-04  .515373854256D+04
     .115184000000D+06 -.540167093277D-07  .344541467238D+00  .745058059692D-07
     .924287819429D+00  .124906250000D+03 -.206664679216D+01 -.847213861287D-08
     .135719938995D-10  .100000000000D+01  .178600000000D+04  .000000000000D+00
     .240000000000D+01  .000000000000D+00 -.172294676304D-07  .150000000000D+02
     .108006000000D+06  .400000000000D+01
 1 14  3 31  8  0  0.0  .654580071568D-05  .170530256582D-11  .000000000000D+00
     .290000000000D+02 -.716562500000D+02  .481662920337D-08 -.307141273265D+01
    -.371783971786D-05  .284228241071D-02  .867247581482D-05  .515367848015D+04
     .115200000000D+06 -.204890966415D-07 -.691937456304D+00 -.447034835815D-07
     .960879929786D+00  .212000000000D+03  .329717301409D+00 -.814176770873D-08
    -.643955394756D-09  .100000000000D+01  .178600000000D+04  .000000000000D+00
     .240000000000D+01  .000000000000D+00  .651925802231D-08  .290000000000D+02
     .108006000000D+06  .400000000000D+01
 2 14  3 31  8  0  0.0  .487007666379D-03  .216004991671D-11  .000000000000D+00
     .920000000000D+02 -.864687500000D+02  .527271962994D-08 -.244706613950D+01
    -.445544719696D-05  .134154158877D-01  .779516994953D-05  .515358200264D+04
     .115200000000D+06  .176951289177D-06 -.720271748129D+00 -.258907675743D-06
     .939388283670D+00  .214562500000D+03 -.245308617759D+01 -.838070623291D-08
    -.497877881469D-09  .100000000000D+01  .178600000000D+04  .000000000000D+00
     .240000000000D+01  .000000000000D+00 -.200234353542D-07  .920000000000D+02
     .108006000000D+06  .400000000000D+01
 4 14  3 31  8  0  0.0  .637304037809D-05  .113686837722D-12  .000000000000D+00
     .900000000000D+01 -.774687500000D+02  .544094092274D-08  .946024739853D+00
    -.383891165257D-05  .105624527205D-01  .798515975475D-05  .515371148300D+04
     .115200000000D+06 -.130385160446D-06 -.704197571467D+00  .279396772385D-07
     .938420996384D+00  .219312500000D+03  .108676099788D+01 -.868286167604D-08
    -.690385900201D-09  .100000000000D+01  .178600000000D+04  .000000000000D+00
     .240000000000D+01  .000000000000D+00 -.605359673500D-08  .900000000000D+01
     .108006000000D+06  .400000000000D+01
 5 14  3 31  8  0  0.0 -.381534453481D-03  .204636307899D-11  .000000000000D+00
     .790000000000D+02  .652187500000D+02  .454626079858D-08 -.146860780655D+00
     .332295894623D-05  .356527755503D-02  .121798366308D-04  .515357260323D+04
     .115200000000D+06  .298023223877D-07  .346605262826D+00  .223517417908D-07
     .947951654586D+00  .137000000000D+03  .337256761332D+00 -.808640825993D-08
     .857178562071D-11  .100000000000D+01  .178600000000D+04  .000000000000D+00
     .240000000000D+01  .000000000000D+00 -.102445483208D-07  .790000000000D+02
     .108006000000D+06  .400000000000D+01
 8 14  3 31  8  0  0.0  .126273371279D-04  .227373675443D-12  .000000000000D+00
     .610000000000D+02 -.121875000000D+03  .360586448444D-08  .202457577564D+01
    -.622123479843D-05  .135698162485D-01  .869110226631D-05  .515348846436D+04
     .115200000000D+06 -.197440385818D-06  .256674946591D+01  .447034835815D-07
     .997095644487D+00  .234562500000D+03 -.278231544075D+01 -.774639409698D-08
    -.558594696283D-09  .100000000000D+01  .178600000000D+04  .000000000000D+00
     .240000000000D+01  .000000000000D+00 -.419095158577D-08  .610000000000D+02
     .108006000000D+06  .400000000000D+01
11 14  3 31  8  0  0.0 -.476677902043D-03 -.318323145621D-11  .000000000000D+00
     .190000000000D+02 -.719375000000D+02  .666420616236D-08  .277980202754D+01
    -.382587313652D-05  .148286193144D-01  .412203371525D-05  .515369387245D+04
     .115200000000D+06  .132247805595D-06 -.101169244213D+01 -.175088644028D-06
     .890107791808D+00  .259187500000D+03  .127324730073D+01 -.898823153878D-08
    -.495734935064D-09  .100000000000D+01  .178600000000D+04  .000000000000D+00
     .240000000000D+01  .000000000000D+00 -.116415321827D-07  .190000000000D+02
     .108006000000D+06  .400000000000D+01
12 14  3 31  8  0  0.0  .195582862943D-03  .238742359215D-11  .000000000000D+00
     .520000000000D+02  .176562500000D+02  .359729269882D-08  .219845461830D+01
     .929459929466D-06  .503547000699D-02  .129528343678D-04  .515365913773D+04
     .115200000000D+06 -.126659870148D-06 -.275295454324D+01  .111758708954D-07
     .987349134186D+00  .141125000000D+03  .376962976627D+00 -.755781481332D-08
     .455733268834D-09  .100000000000D+01  .178600000000D+04  .000000000000D+00
     .240000000000D+01  .000000000000D+00 -.121071934700D-07  .520000000000D+02
     .108006000000D+06  .400000000000D+01
13 14  3 31  8  0  0.0  .146552920341D-04 -.386535248253D-11  .000000000000D+00
     .920000000000D+02  .443125000000D+02  .458019078333D-08 -.134122223694D+01
     .226683914661D-05  .534515012987D-02  .253133475780D-05  .515360611153D+04
     .115200000000D+06 -.106170773506D-06  .150345010597D+01  .745058059692D-08
     .977790581062D+00  .341062500000D+03  .221400334112D+01 -.845713798803D-08
     .202151277555D-09  .100000000000D+01  .178600000000D+04  .000000000000D+00
     .240000000000D+01  .000000000000D+00 -.111758708954D-07  .920000000000D+02
     .108006000000D+06  .400000000000D+01
14 14  3 31  8  0  0.0  .185815151781D-03 -.329691829393D-11  .000000000000D+00
     .240000000000D+02  .380937500000D+02  .478912805784D-08 -.101260427019D+01
     .203959643841D-05  .731993641239D-02  .195764005184D-05  .515363320160D+04
     .115200000000D+06  .577419996262D-07  .147197646070D+01  .132247805595D-06
     .970381925034D+00  .348656250000D+03 -.199778630190D+01 -.861250160240D-08
     .928610108910D-10  .100000000000D+01  .178600000000D+04  .000000000000D+00
     .240000000000D+01  .000000000000D+00 -.884756445885D-08  .240000000000D+02
     .108006000000D+06  .400000000000D+01
15 14  3 31  8  0  0.0 -.171231571585D-03 -.216004991671D-11  .000000000000D+00
     .740000000000D+02  .646562500000D+02  .532307887046D-08 -.161031812664D+01
     .336579978466D-05  .622968922835D-02  .240653753281D-05  .515366625786D+04
     .115200000000D+06 -.372529029846D-08  .136178009074D+01 -.689178705215D-07
     .937026655516D+00  .321625000000D+03  .271110106996D+00 -.873857828258D-08
     .262153776900D-09  .100000000000D+01  .178600000000D+04  .000000000000D+00
     .240000000000D+01  .000000000000D+00 -.102445483208D-07  .740000000000D+02
     .108006000000D+06  .400000000000D+01
16 14  3 31  8  0  0.0 -.225386582315D-03  .170530256582D-11  .000000000000D+00
     .850000000000D+02  .161875000000D+02  .365015204348D-08  .185396544453D-01
     .989064574242D-06  .769487512298D-02  .133588910103D-04  .515356586647D+04
     .115200000000D+06  .108033418655D-06 -.273443470110D+01  .353902578354D-07
     .987955444973D+00  .134781250000D+03  .168942297285D+00 -.767639118108D-08
     .518235872319D-09  .100000000000D+01  .178600000000D+04  .000000000000D+00
     .240000000000D+01  .000000000000D+00 -.977888703346D-08  .850000000000D+02
     .108006000000D+06  .400000000000D+01
18 14  3 31  8  0  0.0  .310396775603D-03  .227373675443D-11  .000000000000D+00
     .510000000000D+02  .776562500000D+02  .517485841077D-08  .685747545624D+00
     .423938035965D-05  .149804323446D-01  .122431665659D-04  .515368896294D+04
     .115200000000D+06 -.203028321266D-06  .342546921803D+00  .707805156708D-07
     .926517925396D+00  .130468750000D+03 -.205237417278D+01 -.856214236188D-08
    -.917895376884D-10  .100000000000D+01  .178600000000D+04  .000000000000D+00
     .240000000000D+01  .000000000000D+00 -.107102096081D-07  .510000000000D+02
     .108006000000D+06  .400000000000D+01
19 14  3 31  8  0  0.0 -.448109116405D-03 -.238742359215D-11  .000000000000D+00
     .260000000000D+02  .261562500000D+02  .509056918550D-08 -.171337565094D+01
     .111944973469D-05  .101064174669D-01  .375509262085D-05  .515358274078D+04
     .115200000000D+06  .707805156708D-07 -.165071497970D+01 -.141561031342D-06
     .964832419909D+00  .306781250000D+03  .409430693746D+00 -.838999233400D-08
     .423231915022D-09  .100000000000D+01  .178600000000D+04  .000000000000D+00
     .240000000000D+01  .000000000000D+00 -.149011611938D-07  .260000000000D+02
     .108006000000D+06  .400000000000D+01
20 14  3 31  8  0  0.0  .175100285560D-03  .363797880709D-11  .000000000000D+00
     .990000000000D+02  .621250000000D+02  .498913638899D-08  .123070014241D+01
     .314041972160D-05  .586990895681D-02  .135153532028D-04  .515355514145D+04
     .115200000000D+06 -.124797224998D-06  .289432916020D+00 -.335276126862D-07
     .927507668474D+00  .100718750000D+03  .131673882533D+01 -.830141721592D-08
    -.178578867098D-10  .100000000000D+01  .178600000000D+04  .000000000000D+00
     .240000000000D+01  .000000000000D+00 -.791624188423D-08  .990000000000D+02
     .108006000000D+06  .400000000000D+01
